{
  "type": "FeatureCollection",
  "features": [
    {
      "type": "Feature",
      "properties": {
        "norad_id": 64751,
        "name": "PROGRESS-MS 31",
        "group": "stations",
        "lat": 38.99741929034397,
        "lon": -74.95846959452008,
        "alt_km": 413.68360497501544,
        "timestamp": "2025-12-12T05:47:27.545667+00:00",
        "meta_object_name": "PROGRESS-MS 31",
        "meta_object_id": "2025-146A",
        "meta_epoch": "2025-12-11T21:30:28.324224",
        "meta_mean_motion": 15.49521399,
        "meta_eccentricity": 0.00032978,
        "meta_inclination": 51.6307,
        "meta_ra_of_asc_node": 146.6565,
        "meta_arg_of_pericenter": 237.1442,
        "meta_mean_anomaly": 122.9229,
        "meta_ephemeris_type": 0,
        "meta_classification_type": "U",
        "meta_norad_cat_id": 64751,
        "meta_element_set_no": 999,
        "meta_rev_at_epoch": 675,
        "meta_bstar": 0.00026380738,
        "meta_mean_motion_dot": 0.00014378,
        "meta_mean_motion_ddot": 0,
        "tle_line1": "1 64751U 25146A   25345.89616116  .00014378  00000+0  26381-3 0  9993",
        "tle_line2": "2 64751  51.6307 146.6565 0003297 237.1442 122.9229 15.49521399  6757"
      },
      "geometry": {
        "type": "Point",
        "coordinates": [
          -74.95846959452008,
          38.99741929034397
        ]
      }
    },
    {
      "type": "Feature",
      "properties": {
        "norad_id": 64786,
        "name": "TIANZHOU-9",
        "group": "stations",
        "lat": -24.978317171627033,
        "lon": -128.4298231129066,
        "alt_km": 397.92365935032103,
        "timestamp": "2025-12-12T05:47:27.545678+00:00",
        "meta_object_name": "TIANZHOU-9",
        "meta_object_id": "2025-149A",
        "meta_epoch": "2025-12-11T19:37:47.505216",
        "meta_mean_motion": 15.59116827,
        "meta_eccentricity": 0.00085427,
        "meta_inclination": 41.4685,
        "meta_ra_of_asc_node": 22.304,
        "meta_arg_of_pericenter": 22.5495,
        "meta_mean_anomaly": 337.5718,
        "meta_ephemeris_type": 0,
        "meta_classification_type": "U",
        "meta_norad_cat_id": 64786,
        "meta_element_set_no": 999,
        "meta_rev_at_epoch": 25530,
        "meta_bstar": 0.00035527983,
        "meta_mean_motion_dot": 0.00028382,
        "meta_mean_motion_ddot": 0,
        "tle_line1": "1 64786U 25149A   25345.81791094  .00028382  00000+0  35528-3 0  9998",
        "tle_line2": "2 64786  41.4685  22.3040 0008542  22.5495 337.5718 15.59116827255302"
      },
      "geometry": {
        "type": "Point",
        "coordinates": [
          -128.4298231129066,
          -24.978317171627033
        ]
      }
    },
    {
      "type": "Feature",
      "properties": {
        "norad_id": 65077,
        "name": "CREW DRAGON 11",
        "group": "stations",
        "lat": 38.99741843480045,
        "lon": -74.95846813282685,
        "alt_km": 413.6836050574966,
        "timestamp": "2025-12-12T05:47:27.545689+00:00",
        "meta_object_name": "CREW DRAGON 11",
        "meta_object_id": "2025-166A",
        "meta_epoch": "2025-12-11T21:30:28.324224",
        "meta_mean_motion": 15.49521399,
        "meta_eccentricity": 0.00032978,
        "meta_inclination": 51.6307,
        "meta_ra_of_asc_node": 146.6565,
        "meta_arg_of_pericenter": 237.1442,
        "meta_mean_anomaly": 122.9229,
        "meta_ephemeris_type": 0,
        "meta_classification_type": "U",
        "meta_norad_cat_id": 65077,
        "meta_element_set_no": 999,
        "meta_rev_at_epoch": 214,
        "meta_bstar": 0.00026380738,
        "meta_mean_motion_dot": 0.00014378,
        "meta_mean_motion_ddot": 0,
        "tle_line1": "1 65077U 25166A   25345.89616116  .00014378  00000+0  26381-3 0  9997",
        "tle_line2": "2 65077  51.6307 146.6565 0003297 237.1442 122.9229 15.49521399  2148"
      },
      "geometry": {
        "type": "Point",
        "coordinates": [
          -74.95846813282685,
          38.99741843480045
        ]
      }
    },
    {
      "type": "Feature",
      "properties": {
        "norad_id": 65304,
        "name": "DRAGON CRS-33",
        "group": "stations",
        "lat": 38.99741796814004,
        "lon": -74.95846733553913,
        "alt_km": 413.6836051024866,
        "timestamp": "2025-12-12T05:47:27.545701+00:00",
        "meta_object_name": "DRAGON CRS-33",
        "meta_object_id": "2025-186A",
        "meta_epoch": "2025-12-11T21:30:28.324224",
        "meta_mean_motion": 15.49521399,
        "meta_eccentricity": 0.00032978,
        "meta_inclination": 51.6307,
        "meta_ra_of_asc_node": 146.6565,
        "meta_arg_of_pericenter": 237.1442,
        "meta_mean_anomaly": 122.9229,
        "meta_ephemeris_type": 0,
        "meta_classification_type": "U",
        "meta_norad_cat_id": 65304,
        "meta_element_set_no": 999,
        "meta_rev_at_epoch": 11,
        "meta_bstar": 0.00026380738,
        "meta_mean_motion_dot": 0.00014378,
        "meta_mean_motion_ddot": 0,
        "tle_line1": "1 65304U 25186A   25345.89616116  .00014378  00000+0  26381-3 0  9992",
        "tle_line2": "2 65304  51.6307 146.6565 0003297 237.1442 122.9229 15.49521399   116"
      },
      "geometry": {
        "type": "Point",
        "coordinates": [
          -74.95846733553913,
          38.99741796814004
        ]
      }
    },
    {
      "type": "Feature",
      "properties": {
        "norad_id": 65586,
        "name": "PROGRESS-MS 32",
        "group": "stations",
        "lat": 38.99741738481477,
        "lon": -74.95846633892991,
        "alt_km": 413.68360515872064,
        "timestamp": "2025-12-12T05:47:27.545716+00:00",
        "meta_object_name": "PROGRESS-MS 32",
        "meta_object_id": "2025-204A",
        "meta_epoch": "2025-12-11T21:30:28.324224",
        "meta_mean_motion": 15.49521399,
        "meta_eccentricity": 0.00032978,
        "meta_inclination": 51.6307,
        "meta_ra_of_asc_node": 146.6565,
        "meta_arg_of_pericenter": 237.1442,
        "meta_mean_anomaly": 122.9229,
        "meta_ephemeris_type": 0,
        "meta_classification_type": "U",
        "meta_norad_cat_id": 65586,
        "meta_element_set_no": 999,
        "meta_rev_at_epoch": 27,
        "meta_bstar": 0.00026380738,
        "meta_mean_motion_dot": 0.00014378,
        "meta_mean_motion_ddot": 0,
        "tle_line1": "1 65586U 25204A   25345.89616116  .00014378  00000+0  26381-3 0  9995",
        "tle_line2": "2 65586  51.6307 146.6565 0003297 237.1442 122.9229 15.49521399   275"
      },
      "geometry": {
        "type": "Point",
        "coordinates": [
          -74.95846633892991,
          38.99741738481477
        ]
      }
    },
    {
      "type": "Feature",
      "properties": {
        "norad_id": 65616,
        "name": "CYGNUS NG-23",
        "group": "stations",
        "lat": 38.9974169181548,
        "lon": -74.958465541643,
        "alt_km": 413.68360520371334,
        "timestamp": "2025-12-12T05:47:27.545728+00:00",
        "meta_object_name": "CYGNUS NG-23",
        "meta_object_id": "2025-208A",
        "meta_epoch": "2025-12-11T21:30:28.324224",
        "meta_mean_motion": 15.49521399,
        "meta_eccentricity": 0.00032978,
        "meta_inclination": 51.6307,
        "meta_ra_of_asc_node": 146.6565,
        "meta_arg_of_pericenter": 237.1442,
        "meta_mean_anomaly": 122.9229,
        "meta_ephemeris_type": 0,
        "meta_classification_type": "U",
        "meta_norad_cat_id": 65616,
        "meta_element_set_no": 999,
        "meta_rev_at_epoch": 22,
        "meta_bstar": 0.00026380738,
        "meta_mean_motion_dot": 0.00014378,
        "meta_mean_motion_ddot": 0,
        "tle_line1": "1 65616U 25208A   25345.89616116  .00014378  00000+0  26381-3 0  9993",
        "tle_line2": "2 65616  51.6307 146.6565 0003297 237.1442 122.9229 15.49521399   224"
      },
      "geometry": {
        "type": "Point",
        "coordinates": [
          -74.958465541643,
          38.9974169181548
        ]
      }
    },
    {
      "type": "Feature",
      "properties": {
        "norad_id": 65729,
        "name": "DRAGONFLY",
        "group": "stations",
        "lat": 45.08645127010542,
        "lon": -169.03959684640256,
        "alt_km": 351.88849616905554,
        "timestamp": "2025-12-12T05:47:27.545739+00:00",
        "meta_object_name": "DRAGONFLY",
        "meta_object_id": "1998-067XH",
        "meta_epoch": "2025-12-11T23:24:46.286208",
        "meta_mean_motion": 15.71570854,
        "meta_eccentricity": 0.00067276,
        "meta_inclination": 51.6238,
        "meta_ra_of_asc_node": 139.6768,
        "meta_arg_of_pericenter": 272.7665,
        "meta_mean_anomaly": 87.2563,
        "meta_ephemeris_type": 0,
        "meta_classification_type": "U",
        "meta_norad_cat_id": 65729,
        "meta_element_set_no": 999,
        "meta_rev_at_epoch": 1304,
        "meta_bstar": 0.001427359,
        "meta_mean_motion_dot": 0.00191153,
        "meta_mean_motion_ddot": 0,
        "tle_line1": "1 65729U 98067XH  25345.97553572  .00191153  00000+0  14274-2 0  9990",
        "tle_line2": "2 65729  51.6238 139.6768 0006727 272.7665  87.2563 15.71570854 13045"
      },
      "geometry": {
        "type": "Point",
        "coordinates": [
          -169.03959684640256,
          45.08645127010542
        ]
      }
    }
  ]
}